{
  "norad_id": 68385,
  "name": "STARLINK-37128",
  "history": [
    {
      "epoch": "2026-04-02T18:00:01.999296Z",
      "apogee_km": 279.21816397341445,
      "perigee_km": 277.06685443604056,
      "latitude_deg": 25.636296736197455,
      "longitude_deg": -44.062201649464974,
      "height_km": 281.29608593818523,
      "semi_major_axis_km": 6656.279509204727,
      "eccentricity": 0.0001616,
      "inclination_deg": 97.2831,
      "raan_deg": 233.544,
      "arg_perigee_deg": 74.3986,
      "mean_anomaly_deg": 79.758,
      "mean_motion_rev_day": 15.98657525
    }
  ]
}